TIANMU-1 07             
1 57399U 23101A   26065.57454230  .00008352  00000+0  29795-3 0  9991
2 57399  97.2728 118.5929 0004609 142.4105 217.7458 15.29118809145964
STARLINK-36545          
1 67505U 26012N   26068.08957493  .00021403  00000+0  78488-3 0  9998
2 67505  43.0060 317.4750 0002490 266.3239  93.7328 15.27585194  7670
